[
  {
    "Name": "JOHNSON RIVERHOUSE LLC",
    "Address": "180 FOUNTAIN PKWY N STE 100",
    "City": "SAINT PETERSBURG",
    "State": "FL",
    "Zip": "33716",
    "PortfolioSize": 23,
    "PortfolioValue": 9946307
  },
  {
    "Name": "FRATTALI DANIEL TR",
    "Address": "16133 VENTURA BLVD STE 545",
    "City": "ENCINO",
    "State": "CA",
    "Zip": "91436",
    "PortfolioSize": 47,
    "PortfolioValue": 1885128
  },
  {
    "Name": "FREO PROGRESS LLC",
    "Address": "810 7TH AVE FL 24",
    "City": "NEW YORK",
    "State": "NY",
    "Zip": "10019",
    "PortfolioSize": 165,
    "PortfolioValue": 424107217
  },
  {
    "Name": "CARDINAL ONE PORTFOLIO LLC15301 VENTURA BLVD STE",
    "Address": "570 SHERMAN",
    "City": "OAKS",
    "State": "CA",
    "Zip": "91403",
    "PortfolioSize": 219,
    "PortfolioValue": 9466957
  },
  {
    "Name": "MIBE LLC PO BOX",
    "Address": "91302",
    "City": "SEATTLE",
    "State": "WA",
    "Zip": "98111",
    "PortfolioSize": 24,
    "PortfolioValue": 3419974
  },
  {
    "Name": "EVEROSE LLC",
    "Address": "14508 NE 20TH ST STE 200",
    "City": "BELLEVUE",
    "State": "WA",
    "Zip": "98007",
    "PortfolioSize": 96,
    "PortfolioValue": 14929680
  },
  {
    "Name": "UVM INVESTORS LLC",
    "Address": "3600 RED RD STE 309",
    "City": "MIRAMAR",
    "State": "FL",
    "Zip": "33025",
    "PortfolioSize": 145,
    "PortfolioValue": 1347311
  },
  {
    "Name": "CAM DALLAS LLC",
    "Address": "45 BROADWAY FL 25",
    "City": "NEW YORK",
    "State": "NY",
    "Zip": "10006",
    "PortfolioSize": 27,
    "PortfolioValue": 7822404
  },
  {
    "Name": "563 ADDISON VILLA LLC PO BOX",
    "Address": "1707 LOS",
    "City": "ALTOS",
    "State": "CA",
    "Zip": "94023",
    "PortfolioSize": 42,
    "PortfolioValue": 2001192
  },
  {
    "Name": "DP BROADWAY TEMPE LLC",
    "Address": "6222 WILSHIRE BLVD STE 400",
    "City": "LOS ANGELES",
    "State": "CA",
    "Zip": "90048",
    "PortfolioSize": 151,
    "PortfolioValue": 73274951
  },
  {
    "Name": "3708 GULF DR LLC",
    "Address": "102 48TH",
    "City": "ST HOLMES BEACH",
    "State": "FL",
    "Zip": "34217",
    "PortfolioSize": 35,
    "PortfolioValue": 1792475
  },
  {
    "Name": "ROCKY BOBBY LLC",
    "Address": "15 W 53RD",
    "City": "ST NEW YORK",
    "State": "NY",
    "Zip": "10019",
    "PortfolioSize": 21,
    "PortfolioValue": 1953941
  }
]